{
  "norad_id": 43194,
  "name": "ZHANGHENG 1-01 (CSES-1)",
  "history": [
    {
      "epoch": "2026-03-28T22:25:44.763168Z",
      "apogee_km": 516.1373104539571,
      "perigee_km": 490.90886929806766,
      "latitude_deg": 3.3531958356888234e-05,
      "longitude_deg": 89.24231592215376,
      "height_km": 519.052796278841,
      "semi_major_axis_km": 6881.660089876012,
      "eccentricity": 0.00183302,
      "inclination_deg": 97.6784,
      "raan_deg": 252.0267,
      "arg_perigee_deg": 170.7033,
      "mean_anomaly_deg": 189.4545,
      "mean_motion_rev_day": 15.20767896
    },
    {
      "epoch": "2026-03-29T04:44:44.551104Z",
      "apogee_km": 516.1288735584976,
      "perigee_km": 490.8732618500226,
      "latitude_deg": 1.3802941212018383e-05,
      "longitude_deg": -5.498011620470279,
      "height_km": 519.0086995571577,
      "semi_major_axis_km": 6881.63806770426,
      "eccentricity": 0.001835,
      "inclination_deg": 97.6785,
      "raan_deg": 252.2949,
      "arg_perigee_deg": 169.7691,
      "mean_anomaly_deg": 190.3921,
      "mean_motion_rev_day": 15.20775196
    },
    {
      "epoch": "2026-03-30T04:25:57.774144Z",
      "apogee_km": 516.0922931045125,
      "perigee_km": 490.7461452380594,
      "latitude_deg": -1.0069342526704762e-05,
      "longitude_deg": -0.7700945847423759,
      "height_km": 518.8060274221953,
      "semi_major_axis_km": 6881.556219171285,
      "eccentricity": 0.0018416,
      "inclination_deg": 97.6786,
      "raan_deg": 253.3007,
      "arg_perigee_deg": 166.2227,
      "mean_anomaly_deg": 193.9514,
      "mean_motion_rev_day": 15.20802328
    }
  ]
}